{
  "type": "FeatureCollection",
  "features": [
    {
      "type": "Feature",
      "properties": {
        "norad_id": 66725,
        "name": "FLOCK 4H-22",
        "group": "last-30-days",
        "lat": -16.10983838074885,
        "lon": -113.72395274795517,
        "alt_km": 518.4919109226039,
        "timestamp": "2025-12-22T20:43:44.565101+00:00",
        "meta_object_name": "FLOCK 4H-22",
        "meta_object_id": "2025-276BM",
        "meta_epoch": "2025-12-22T11:57:15.792480",
        "meta_mean_motion": 15.17482654,
        "meta_eccentricity": 0.00015992,
        "meta_inclination": 97.4379,
        "meta_ra_of_asc_node": 68.0794,
        "meta_arg_of_pericenter": 294.6705,
        "meta_mean_anomaly": 65.4362,
        "meta_ephemeris_type": 0,
        "meta_classification_type": "U",
        "meta_norad_cat_id": 66725,
        "meta_element_set_no": 999,
        "meta_rev_at_epoch": 360,
        "meta_bstar": 0.00035180603,
        "meta_mean_motion_dot": 6.983e-05,
        "meta_mean_motion_ddot": 0,
        "tle_line1": "1 66725U 25276BM  25356.49809945  .00006983  00000+0  35181-3 0  9993",
        "tle_line2": "2 66725  97.4379  68.0794 0001599 294.6705  65.4362 15.17482654  3606"
      },
      "geometry": {
        "type": "Point",
        "coordinates": [
          -113.72395274795517,
          -16.10983838074885
        ]
      }
    },
    {
      "type": "Feature",
      "properties": {
        "norad_id": 66726,
        "name": "FLOCK 4H-23",
        "group": "last-30-days",
        "lat": 3.2818354874776814,
        "lon": -111.11597827811973,
        "alt_km": 516.0783180520739,
        "timestamp": "2025-12-22T20:43:44.565113+00:00",
        "meta_object_name": "FLOCK 4H-23",
        "meta_object_id": "2025-276BN",
        "meta_epoch": "2025-12-22T10:27:21.127680",
        "meta_mean_motion": 15.17219334,
        "meta_eccentricity": 0.0003575,
        "meta_inclination": 97.4442,
        "meta_ra_of_asc_node": 68.0339,
        "meta_arg_of_pericenter": 249.7808,
        "meta_mean_anomaly": 110.3041,
        "meta_ephemeris_type": 0,
        "meta_classification_type": "U",
        "meta_norad_cat_id": 66726,
        "meta_element_set_no": 999,
        "meta_rev_at_epoch": 359,
        "meta_bstar": 0.00085290082,
        "meta_mean_motion_dot": 0.0001692,
        "meta_mean_motion_ddot": 0,
        "tle_line1": "1 66726U 25276BN  25356.43566120  .00016920  00000+0  85290-3 0  9991",
        "tle_line2": "2 66726  97.4442  68.0339 0003575 249.7808 110.3041 15.17219334  3599"
      },
      "geometry": {
        "type": "Point",
        "coordinates": [
          -111.11597827811973,
          3.2818354874776814
        ]
      }
    },
    {
      "type": "Feature",
      "properties": {
        "norad_id": 66727,
        "name": "FLOCK 4H-24",
        "group": "last-30-days",
        "lat": -5.785916363623817,
        "lon": -112.2989169855135,
        "alt_km": 517.3253890449323,
        "timestamp": "2025-12-22T20:43:44.565123+00:00",
        "meta_object_name": "FLOCK 4H-24",
        "meta_object_id": "2025-276BP",
        "meta_epoch": "2025-12-22T11:59:56.829984",
        "meta_mean_motion": 15.17320161,
        "meta_eccentricity": 0.00028091,
        "meta_inclination": 97.4443,
        "meta_ra_of_asc_node": 68.1028,
        "meta_arg_of_pericenter": 264.6758,
        "meta_mean_anomaly": 95.4155,
        "meta_ephemeris_type": 0,
        "meta_classification_type": "U",
        "meta_norad_cat_id": 66727,
        "meta_element_set_no": 999,
        "meta_rev_at_epoch": 360,
        "meta_bstar": 0.00028902486,
        "meta_mean_motion_dot": 5.698e-05,
        "meta_mean_motion_ddot": 0,
        "tle_line1": "1 66727U 25276BP  25356.49996331  .00005698  00000+0  28902-3 0  9996",
        "tle_line2": "2 66727  97.4443  68.1028 0002809 264.6758  95.4155 15.17320161  3608"
      },
      "geometry": {
        "type": "Point",
        "coordinates": [
          -112.2989169855135,
          -5.785916363623817
        ]
      }
    },
    {
      "type": "Feature",
      "properties": {
        "norad_id": 66728,
        "name": "FLOCK 4H-25",
        "group": "last-30-days",
        "lat": -79.59572378082188,
        "lon": -156.89793149934113,
        "alt_km": 519.5427697085515,
        "timestamp": "2025-12-22T20:43:44.565133+00:00",
        "meta_object_name": "FLOCK 4H-25",
        "meta_object_id": "2025-276BQ",
        "meta_epoch": "2025-12-22T11:39:58.829184",
        "meta_mean_motion": 15.18204755,
        "meta_eccentricity": 0.00016259,
        "meta_inclination": 97.44,
        "meta_ra_of_asc_node": 68.105,
        "meta_arg_of_pericenter": 117.8452,
        "meta_mean_anomaly": 242.2947,
        "meta_ephemeris_type": 0,
        "meta_classification_type": "U",
        "meta_norad_cat_id": 66728,
        "meta_element_set_no": 999,
        "meta_rev_at_epoch": 288,
        "meta_bstar": 0.00032955451,
        "meta_mean_motion_dot": 6.674e-05,
        "meta_mean_motion_ddot": 0,
        "tle_line1": "1 66728U 25276BQ  25356.48609756  .00006674  00000+0  32955-3 0  9996",
        "tle_line2": "2 66728  97.4400  68.1050 0001625 117.8452 242.2947 15.18204755  2883"
      },
      "geometry": {
        "type": "Point",
        "coordinates": [
          -156.89793149934113,
          -79.59572378082188
        ]
      }
    },
    {
      "type": "Feature",
      "properties": {
        "norad_id": 66729,
        "name": "FLOCK 4H-26",
        "group": "last-30-days",
        "lat": 11.369506411156362,
        "lon": -110.05851339251497,
        "alt_km": 516.0659175962919,
        "timestamp": "2025-12-22T20:43:44.565143+00:00",
        "meta_object_name": "FLOCK 4H-26",
        "meta_object_id": "2025-276BR",
        "meta_epoch": "2025-12-22T12:04:26.741856",
        "meta_mean_motion": 15.17145256,
        "meta_eccentricity": 0.00036371,
        "meta_inclination": 97.4396,
        "meta_ra_of_asc_node": 68.0818,
        "meta_arg_of_pericenter": 262.6705,
        "meta_mean_anomaly": 97.4116,
        "meta_ephemeris_type": 0,
        "meta_classification_type": "U",
        "meta_norad_cat_id": 66729,
        "meta_element_set_no": 999,
        "meta_rev_at_epoch": 360,
        "meta_bstar": 0.00057609549,
        "meta_mean_motion_dot": 0.00011375,
        "meta_mean_motion_ddot": 0,
        "tle_line1": "1 66729U 25276BR  25356.50308729  .00011375  00000+0  57610-3 0  9995",
        "tle_line2": "2 66729  97.4396  68.0818 0003637 262.6705  97.4116 15.17145256  3602"
      },
      "geometry": {
        "type": "Point",
        "coordinates": [
          -110.05851339251497,
          11.369506411156362
        ]
      }
    },
    {
      "type": "Feature",
      "properties": {
        "norad_id": 66730,
        "name": "FLOCK 4H-27",
        "group": "last-30-days",
        "lat": -69.73275383140967,
        "lon": -132.25413350506727,
        "alt_km": 519.3282394640819,
        "timestamp": "2025-12-22T20:43:44.565153+00:00",
        "meta_object_name": "FLOCK 4H-27",
        "meta_object_id": "2025-276BS",
        "meta_epoch": "2025-12-22T11:43:00.198336",
        "meta_mean_motion": 15.18076839,
        "meta_eccentricity": 0.00010679,
        "meta_inclination": 97.4375,
        "meta_ra_of_asc_node": 68.0949,
        "meta_arg_of_pericenter": 129.2947,
        "meta_mean_anomaly": 230.8382,
        "meta_ephemeris_type": 0,
        "meta_classification_type": "U",
        "meta_norad_cat_id": 66730,
        "meta_element_set_no": 999,
        "meta_rev_at_epoch": 360,
        "meta_bstar": 0.00056014722,
        "meta_mean_motion_dot": 0.00011356,
        "meta_mean_motion_ddot": 0,
        "tle_line1": "1 66730U 25276BS  25356.48819674  .00011356  00000+0  56015-3 0  9997",
        "tle_line2": "2 66730  97.4375  68.0949 0001067 129.2947 230.8382 15.18076839  3606"
      },
      "geometry": {
        "type": "Point",
        "coordinates": [
          -132.25413350506727,
          -69.73275383140967
        ]
      }
    },
    {
      "type": "Feature",
      "properties": {
        "norad_id": 66731,
        "name": "FLOCK 4H-28",
        "group": "last-30-days",
        "lat": 9.660035574021018,
        "lon": -110.29268961708831,
        "alt_km": 516.3659110071494,
        "timestamp": "2025-12-22T20:43:44.565165+00:00",
        "meta_object_name": "FLOCK 4H-28",
        "meta_object_id": "2025-276BT",
        "meta_epoch": "2025-12-22T12:03:59.346144",
        "meta_mean_motion": 15.17134421,
        "meta_eccentricity": 0.00033015,
        "meta_inclination": 97.4386,
        "meta_ra_of_asc_node": 68.0787,
        "meta_arg_of_pericenter": 264.9699,
        "meta_mean_anomaly": 95.1158,
        "meta_ephemeris_type": 0,
        "meta_classification_type": "U",
        "meta_norad_cat_id": 66731,
        "meta_element_set_no": 999,
        "meta_rev_at_epoch": 360,
        "meta_bstar": 0.00051062406,
        "meta_mean_motion_dot": 0.00010069,
        "meta_mean_motion_ddot": 0,
        "tle_line1": "1 66731U 25276BT  25356.50277021  .00010069  00000+0  51062-3 0  9992",
        "tle_line2": "2 66731  97.4386  68.0787 0003301 264.9699  95.1158 15.17134421  3607"
      },
      "geometry": {
        "type": "Point",
        "coordinates": [
          -110.29268961708831,
          9.660035574021018
        ]
      }
    }
  ]
}